[{"OBJECT_NAME":"TIANYI B","OBJECT_ID":"2025-103B","EPOCH":"2026-03-09T22:38:55.453632","MEAN_MOTION":15.19368035,"ECCENTRICITY":0.00030763,"INCLINATION":97.3871,"RA_OF_ASC_NODE":142.9815,"ARG_OF_PERICENTER":142.7793,"MEAN_ANOMALY":217.3656,"EPHEMERIS_TYPE":0,"CLASSIFICATION_TYPE":"U","NORAD_CAT_ID":64049,"ELEMENT_SET_NO":999,"REV_AT_EPOCH":4499,"BSTAR":0.00023230901,"MEAN_MOTION_DOT":4.846e-5,"MEAN_MOTION_DDOT":0},{"OBJECT_NAME":"PULSAR-0","OBJECT_ID":"2025-135P","EPOCH":"2026-03-09T21:02:58.177536","MEAN_MOTION":15.1958967,"ECCENTRICITY":0.00037333,"INCLINATION":97.4569,"RA_OF_ASC_NODE":184.5909,"ARG_OF_PERICENTER":149.6553,"MEAN_ANOMALY":210.4899,"EPHEMERIS_TYPE":0,"CLASSIFICATION_TYPE":"U","NORAD_CAT_ID":64541,"ELEMENT_SET_NO":999,"REV_AT_EPOCH":3974,"BSTAR":0.00023616879,"MEAN_MOTION_DOT":4.959e-5,"MEAN_MOTION_DDOT":0}]
